ONEWEB-0228             
1 48780U 21045P   24211.45728204  .00000019  00000+0  17414-4 0  9991
2 48780  87.9016  36.0325 0001729  84.5976 275.5351 13.15071997153906
